#aV2011  3 18  0  0   .00000000      96 DD+AD WGS84 FIT  NGA
## 1627 432000.00000000   900.00000000 55638  .0000000000000
+   32     1  2  3  4  5  6  7  8  9 10 11 12 13 14 15 16 17
+         18 19 20 21 22 23 24 25 26 27 28 29 30 31 32  0  0
+          0  0  0  0  0  0  0  0  0  0  0  0  0  0  0  0  0
+          0  0  0  0  0  0  0  0  0  0  0  0  0  0  0  0  0
+          0  0  0  0  0  0  0  0  0  0  0  0  0  0  0  0  0
++         0  0  0  0  0  0  0  0  0  0  0  0  0  0  0  0  0
++         0  0  0  0  0  0  0  0  0  0  0  0  0  0  0  0  0
++         0  0  0  0  0  0  0  0  0  0  0  0  0  0  0  0  0
++         0  0  0  0  0  0  0  0  0  0  0  0  0  0  0  0  0
++         0  0  0  0  0  0  0  0  0  0  0  0  0  0  0  0  0
%c cc cc ccc ccc cccc cccc cccc cccc ccccc ccccc ccccc ccccc
%c cc cc ccc ccc cccc cccc cccc cccc ccccc ccccc ccccc ccccc
%f  0.0000000  0.000000000  0.00000000000  0.000000000000000
%f  0.0000000  0.000000000  0.00000000000  0.000000000000000
%i    0    0    0    0      0      0      0      0         0
%i    0    0    0    0      0      0      0      0         0
/*      NGA, ST. LOUIS,MO.                                  
/*   EPHEMERIS COMPUTED FROM  3 DAYS OF DATA                
/* CCCCCCCCCCCCCCCCCCCCCCCCCCCCCCCCCCCCCCCCCCCCCCCCCCCCCCCCC
/* CCCCCCCCCCCCCCCCCCCCCCCCCCCCCCCCCCCCCCCCCCCCCCCCCCCCCCCCC
*  2011  3 18  1 15   .00000000                                                 
P  1  13304.132579  -7005.871937  21784.293652   -216.167849                    
V  1  14662.194317  23744.214474  -1172.756191      -.027679                    
P  2 -14357.494162  13531.394157  17582.202957    325.696014                    
V  2 -22601.630414  -1215.615075 -18031.748582       .019210                    
P  3   9784.151874 -24487.246747    427.569842    689.803446                    
V  3   3482.222413   2446.574224  31225.071075       .051106                    
P  4 -24423.550942   6784.417368   8295.836182     63.516280                    
V  4 -10832.243656  -2695.493237 -28615.128728       .103555                    
P  5  -3299.503324  19048.531826  18146.095937   -130.674966                    
V  5 -13661.090245 -18757.316543  17288.809928      -.058552                    
P  6  14059.971279 -21969.713686   4526.778829    -74.320264                    
V  6    945.719280   6646.204485  30614.524348     -1.262710                    
P  7 -23987.236752  -6169.481948   9870.283897      5.863167                    
V  7  12395.678443  -2257.078455  28528.535930       .009109                    
P  8 -26837.255682   -901.724872   -752.647071      7.579863                    
V  8   -898.825341  -1281.821858  32126.706399      -.000519                    
P  9   7161.603954  14188.799566 -21828.737037     68.259499                    
V  9 -26312.442659   1768.556000  -7667.479773       .022442                    
P 10 -14869.776188   4787.123218  21296.615408    -69.113843                    
V 10 -13750.340161 -23878.770469  -3824.716886      -.011127                    
P 11  -7625.643086 -15287.642330 -20679.217228   -135.310173                    
V 11  24758.516484  -7522.715377  -3267.097965      -.030094                    
P 12  10551.109349  23999.950671  -4778.013078    -18.555225                    
V 12  -5005.001570  -4078.286138 -31166.212470       .028941                    
P 13 -11712.406062  -8573.782580  22098.547997    278.655600                    
V 13  15431.680788 -23754.440940  -1077.964789      -.014287                    
P 14  18510.533055  -9445.158173 -16305.961080    138.192168                    
V 14  -9654.794159  18714.375533 -21724.571437       .024606                    
P 15   -706.190214  22675.480981 -13668.255537   -142.527731                    
V 15 -10264.457849  14351.318891  24484.293397       .031729                    
P 16   5644.701680 -16905.277310  19624.347111   -158.449366                    
V 16  13439.375990  21005.005607  14541.540105      -.028137                    
P 17 -18473.906775   8575.674371 -16795.044354    183.968900                    
V 17   9123.832031 -19747.989524 -20182.816720       .002727                    
P 18  19153.029887  11816.262753 -14088.109471    127.035872                    
V 18   7131.192532  17082.019574  23144.712706       .020465                    
P 19   5772.297772 -23220.964606 -11147.783705   -121.248904                    
V 19  10082.203674 -10483.869588  27388.428903      -.037984                    
P 20 -14093.211920 -22534.917874  -1118.061308     48.720501                    
V 20   3695.843472   -973.094205 -31054.273953       .000684                    
P 21  24709.434962   6162.570875   8971.079864   -131.122098                    
V 21 -10658.109304   3015.843186  27927.357180      -.026329                    
P 22  17274.699134    -30.807724 -20033.249848    151.604925                    
V 22  12080.332218  22934.251405  10196.180113      -.005517                    
P 23  -3858.302931 -18909.224556  18091.410795    319.415218                    
V 23  12655.903151 -19393.271367 -17899.225787      -.024841                    
P 24 -10320.359879 -14430.739930 -19788.909847    374.174015                    
V 24  25233.765782   -556.854194 -12445.426515       .031769                    
P 25  18047.491413  17676.160790   8217.644873    -71.135837                    
V 25   3465.492572  10178.969313 -29440.761293      -.007075                    
P 26 -11622.801073  23344.421076  -4212.875825   -147.958737                    
V 26  -4370.581613   2739.807717  32041.252498      -.101028                    
P 27    861.391590  14442.164678 -21609.459537    246.627893                    
V 27 -28929.108214   2068.936858    513.581802       .037186                    
P 28 -17526.372991  -4849.810503 -18936.450199     25.847184                    
V 28 -11264.090035 -22381.279957  15480.041619       .021956                    
P 29  10347.261846  11925.941293  21444.344264    193.122122                    
V 29 -14117.633908  23054.135012  -5992.338959       .028017                    
P 30  10612.769821 -10980.776145  21321.373765    329.975815                    
V 30  16074.915690  22993.578174   3800.429059       .029987                    
P 31  22975.966186  -7968.385053  11135.713045     54.489763                    
V 31  13757.942464   1420.996862 -27686.812973       .049033                    
P 32  -6494.013128 -24758.455604  -7547.885377   -217.124709                    
V 32   6708.541472   7675.597014 -29409.211598      -.075516                    
EOF
